[{"OBJECT_NAME":"JILIN-1 KUANFU-01B","OBJECT_ID":"2021-061A","EPOCH":"2026-03-09T22:54:34.499808","MEAN_MOTION":15.09454544,"ECCENTRICITY":0.00089006,"INCLINATION":97.5272,"RA_OF_ASC_NODE":146.9765,"ARG_OF_PERICENTER":57.5197,"MEAN_ANOMALY":302.6891,"EPHEMERIS_TYPE":0,"CLASSIFICATION_TYPE":"U","NORAD_CAT_ID":49003,"ELEMENT_SET_NO":999,"REV_AT_EPOCH":25837,"BSTAR":0.00023291265,"MEAN_MOTION_DOT":3.668e-5,"MEAN_MOTION_DDOT":0},{"OBJECT_NAME":"STARLINK-5271","OBJECT_ID":"2022-141AP","EPOCH":"2026-03-09T22:09:12.800448","MEAN_MOTION":15.08840066,"ECCENTRICITY":0.00012061,"INCLINATION":53.2174,"RA_OF_ASC_NODE":353.0364,"ARG_OF_PERICENTER":81.4631,"MEAN_ANOMALY":278.6498,"EPHEMERIS_TYPE":0,"CLASSIFICATION_TYPE":"U","NORAD_CAT_ID":54194,"ELEMENT_SET_NO":999,"REV_AT_EPOCH":18603,"BSTAR":0.00012899367,"MEAN_MOTION_DOT":1.766e-5,"MEAN_MOTION_DDOT":0}]
